{"type":"FeatureCollection","features":[{"type":"Feature","properties":{"fill":"#b4ccb4","name":"Kazakhstan"},"geometry":{"type":"Polygon","coordinates":[[[87.36,49.215],[86.599,48.549],[85.768,48.456],[85.72,47.453],[85.164,47.001],[83.18,47.33],[82.459,45.54],[81.947,45.317],[79.966,44.918],[80.866,43.18],[80.18,42.92],[80.26,42.35],[79.644,42.497],[79.142,42.856],[77.658,42.961],[76,42.988],[75.637,42.878],[74.213,43.298],[73.645,43.091],[73.49,42.501],[71.845,42.845],[71.186,42.704],[70.962,42.266],[70.389,42.081],[69.07,41.384],[68.632,40.669],[68.26,40.662],[67.986,41.136],[66.714,41.168],[66.511,41.988],[66.023,41.995],[66.098,42.998],[64.901,43.728],[63.186,43.65],[62.013,43.504],[61.058,44.406],[60.24,44.784],[58.69,45.5],[58.503,45.587],[55.929,44.996],[55.968,41.309],[55.455,41.26],[54.755,42.044],[54.079,42.324],[52.944,42.116],[52.502,41.783],[52.446,42.027],[52.692,42.444],[52.501,42.792],[51.342,43.133],[50.891,44.031],[50.339,44.284],[50.306,44.61],[51.279,44.515],[51.317,45.246],[52.167,45.408],[53.041,45.259],[53.221,46.235],[53.043,46.853],[52.042,46.805],[51.192,47.049],[50.034,46.609],[49.101,46.399],[48.593,46.561],[48.695,47.076],[48.057,47.744],[47.315,47.716],[46.466,48.394],[47.044,49.152],[46.752,49.356],[47.549,50.455],[48.578,49.875],[48.702,50.605],[50.767,51.693],[52.329,51.719],[54.533,51.026],[55.717,50.622],[56.778,51.044],[58.363,51.064],[59.642,50.545],[59.933,50.842],[61.337,50.799],[61.588,51.273],[59.968,51.96],[60.927,52.448],[60.74,52.72],[61.7,52.98],[60.978,53.665],[61.437,54.006],[65.179,54.354],[65.667,54.601],[68.169,54.97],[69.068,55.385],[70.865,55.17],[71.18,54.133],[72.224,54.377],[73.509,54.036],[73.426,53.49],[74.385,53.547],[76.891,54.491],[76.525,54.177],[77.801,53.404],[80.036,50.865],[80.568,51.388],[81.946,50.812],[83.383,51.069],[83.935,50.889],[84.416,50.311],[85.116,50.117],[85.541,49.693],[86.829,49.827],[87.36,49.215]]]}},{"type":"Feature","properties":{"fill":"#84c0b4","name":"Uzbekistan"},"geometry":{"type":"Polygon","coordinates":[[[55.968,41.309],[55.929,44.996],[58.503,45.587],[58.69,45.5],[60.24,44.784],[61.058,44.406],[62.013,43.504],[63.186,43.65],[64.901,43.728],[66.098,42.998],[66.023,41.995],[66.511,41.988],[66.714,41.168],[67.986,41.136],[68.26,40.662],[68.632,40.669],[69.07,41.384],[70.389,42.081],[70.962,42.266],[71.259,42.168],[70.42,41.52],[71.158,41.144],[71.87,41.393],[73.055,40.866],[71.775,40.146],[71.014,40.244],[70.601,40.219],[70.458,40.496],[70.667,40.96],[69.329,40.728],[69.012,40.086],[68.536,39.533],[67.701,39.58],[67.442,39.14],[68.176,38.902],[68.392,38.157],[67.83,37.145],[67.076,37.356],[66.519,37.363],[66.546,37.975],[65.216,38.403],[64.17,38.892],[63.518,39.363],[62.374,40.054],[61.883,41.085],[61.547,41.266],[60.466,41.22],[60.083,41.425],[59.976,42.223],[58.629,42.752],[57.787,42.171],[56.932,41.826],[57.096,41.322],[55.968,41.309]]]}},{"type":"Feature","properties":{"fill":"#a8cc84","name":"Indonesia"},"geometry":{"type":"MultiPolygon","coordinates":[[[[141,-2.6],[141.017,-5.859],[141.034,-9.118],[140.143,-8.297],[139.128,-8.096],[138.881,-8.381],[137.614,-8.412],[138.039,-7.598],[138.669,-7.32],[138.408,-6.233],[137.928,-5.393],[135.989,-4.547],[135.165,-4.463],[133.663,-3.539],[133.368,-4.025],[132.984,-4.113],[132.757,-3.746],[132.754,-3.312],[131.99,-2.821],[133.067,-2.46],[133.78,-2.48],[133.696,-2.215],[132.232,-2.213],[131.836,-1.617],[130.943,-1.433],[130.52,-0.938],[131.868,-0.695],[132.38,-0.37],[133.986,-0.78],[134.143,-1.152],[134.423,-2.769],[135.458,-3.368],[136.293,-2.307],[137.441,-1.704],[138.33,-1.703],[139.185,-2.051],[139.927,-2.409],[141,-2.6]]],[[[124.969,-8.893],[125.07,-9.09],[125.089,-9.393],[124.436,-10.14],[123.58,-10.36],[123.46,-10.24],[123.55,-9.9],[123.98,-9.29],[124.969,-8.893]]],[[[134.21,-6.895],[134.113,-6.142],[134.29,-5.783],[134.5,-5.445],[134.727,-5.738],[134.725,-6.214],[134.21,-6.895]]],[[[117.882,4.138],[117.313,3.234],[118.048,2.288],[117.876,1.828],[118.997,0.902],[117.812,0.784],[117.478,0.102],[117.522,-0.804],[116.56,-1.488],[116.534,-2.484],[116.148,-4.013],[116.001,-3.657],[114.865,-4.107],[114.469,-3.496],[113.756,-3.439],[113.257,-3.119],[112.068,-3.478],[111.703,-2.994],[111.048,-3.049],[110.224,-2.934],[110.071,-1.593],[109.572,-1.315],[109.092,-0.46],[108.953,0.415],[109.069,1.342],[109.663,2.006],[109.83,1.338],[110.514,0.773],[111.159,0.976],[111.798,0.904],[112.38,1.41],[112.86,1.498],[113.806,1.218],[114.621,1.431],[115.134,2.821],[115.519,3.169],[115.866,4.307],[117.015,4.306],[117.882,4.138]]],[[[129.371,-2.802],[130.471,-3.094],[130.835,-3.858],[129.991,-3.446],[129.155,-3.363],[128.591,-3.429],[127.899,-3.393],[128.136,-2.844],[129.371,-2.802]]],[[[126.875,-3.791],[126.184,-3.607],[125.989,-3.177],[127.001,-3.129],[127.249,-3.459],[126.875,-3.791]]],[[[127.932,2.175],[128.004,1.629],[128.595,1.541],[128.688,1.132],[128.636,0.258],[128.12,0.356],[127.968,-0.252],[128.38,-0.78],[128.1,-0.9],[127.696,-0.267],[127.399,1.012],[127.601,1.811],[127.932,2.175]]],[[[122.928,0.875],[124.078,0.917],[125.066,1.643],[125.241,1.42],[124.437,0.428],[123.686,0.236],[122.723,0.431],[121.057,0.381],[120.183,0.237],[120.041,-0.52],[120.936,-1.409],[121.476,-0.956],[123.341,-0.616],[123.258,-1.076],[122.823,-0.931],[122.389,-1.517],[121.508,-1.904],[122.455,-3.186],[122.272,-3.529],[123.171,-4.684],[123.162,-5.341],[122.629,-5.635],[122.236,-5.283],[122.72,-4.464],[121.738,-4.851],[121.489,-4.575],[121.619,-4.188],[120.898,-3.602],[120.972,-2.628],[120.305,-2.932],[120.39,-4.098],[120.431,-5.528],[119.797,-5.673],[119.367,-5.38],[119.654,-4.459],[119.499,-3.494],[119.078,-3.487],[118.768,-2.802],[119.181,-2.147],[119.323,-1.353],[119.826,0.154],[120.036,0.566],[120.886,1.309],[121.667,1.014],[122.928,0.875]]],[[[120.295,-10.259],[118.968,-9.558],[119.9,-9.361],[120.426,-9.666],[120.776,-9.97],[120.716,-10.24],[120.295,-10.259]]],[[[121.342,-8.537],[122.007,-8.461],[122.904,-8.094],[122.757,-8.65],[121.254,-8.934],[119.924,-8.81],[119.921,-8.445],[120.715,-8.237],[121.342,-8.537]]],[[[118.261,-8.362],[118.878,-8.281],[119.127,-8.706],[117.97,-8.907],[117.278,-9.041],[116.74,-9.033],[117.084,-8.457],[117.632,-8.449],[117.9,-8.096],[118.261,-8.362]]],[[[108.487,-6.422],[108.623,-6.778],[110.539,-6.877],[110.76,-6.465],[112.615,-6.946],[112.979,-7.594],[114.479,-7.777],[115.706,-8.371],[114.565,-8.752],[113.465,-8.349],[112.56,-8.376],[111.522,-8.302],[110.586,-8.123],[109.428,-7.741],[108.694,-7.642],[108.278,-7.767],[106.454,-7.355],[106.281,-6.925],[105.365,-6.851],[106.052,-5.896],[107.265,-5.955],[108.072,-6.346],[108.487,-6.422]]],[[[104.37,-1.085],[104.539,-1.782],[104.888,-2.34],[105.622,-2.429],[106.109,-3.062],[105.857,-4.306],[105.818,-5.852],[104.71,-5.873],[103.868,-5.037],[102.584,-4.22],[102.156,-3.614],[101.399,-2.8],[100.903,-2.05],[100.142,-0.65],[99.264,0.183],[98.97,1.043],[98.601,1.824],[97.7,2.453],[97.177,3.309],[96.424,3.869],[95.381,4.971],[95.293,5.48],[95.937,5.44],[97.485,5.246],[98.369,4.268],[99.143,3.59],[99.694,3.174],[100.641,2.099],[101.658,2.084],[102.498,1.399],[103.077,0.561],[103.838,0.105],[103.438,-0.712],[104.011,-1.059],[104.37,-1.085]]]]}},{"type":"Feature","properties":{"fill":"#f0d8a8","name":"Russia"},"geometry":{"type":"MultiPolygon","coordinates":[[[[178.725,71.099],[180,71.516],[180,70.832],[178.903,70.781],[178.725,71.099]]],[[[49.101,46.399],[48.645,45.806],[47.676,45.641],[46.682,44.609],[47.591,43.66],[47.493,42.987],[48.584,41.809],[48.584,41.809],[47.987,41.406],[47.816,41.151],[47.373,41.22],[46.686,41.827],[46.405,41.861],[45.776,42.092],[45.47,42.503],[44.538,42.712],[43.931,42.555],[43.756,42.741],[42.394,43.22],[40.922,43.382],[40.077,43.553],[39.955,43.435],[38.68,44.28],[37.539,44.657],[36.675,45.245],[37.403,45.405],[38.233,46.241],[37.674,46.637],[39.148,47.045],[39.121,47.263],[38.224,47.102],[38.255,47.546],[38.771,47.826],[39.738,47.899],[39.896,48.232],[39.675,48.784],[40.081,49.307],[40.069,49.601],[38.595,49.926],[38.011,49.916],[37.393,50.384],[36.626,50.226],[35.356,50.577],[35.378,50.774],[35.022,51.208],[34.225,51.256],[34.142,51.566],[34.392,51.769],[33.753,52.335],[32.716,52.238],[32.412,52.289],[32.159,52.061],[31.786,52.102],[31.786,52.102],[31.54,52.742],[31.305,53.074],[31.498,53.167],[32.305,53.133],[32.694,53.351],[32.406,53.618],[31.731,53.794],[31.791,53.975],[31.384,54.157],[30.758,54.812],[30.972,55.082],[30.874,55.551],[29.896,55.789],[29.372,55.67],[29.23,55.918],[28.177,56.169],[27.855,56.759],[27.77,57.244],[27.288,57.475],[27.717,57.792],[27.42,58.725],[28.132,59.301],[27.981,59.475],[27.981,59.475],[29.118,60.028],[28.07,60.504],[28.07,60.504],[30.211,61.78],[31.14,62.358],[31.516,62.868],[30.036,63.553],[30.445,64.204],[29.544,64.949],[30.218,65.806],[29.055,66.944],[29.977,67.698],[28.446,68.365],[28.592,69.065],[29.4,69.157],[31.101,69.558],[31.101,69.558],[32.133,69.906],[33.775,69.301],[36.514,69.063],[40.292,67.932],[41.06,67.457],[41.126,66.792],[40.016,66.266],[38.383,66],[33.919,66.76],[33.184,66.633],[34.815,65.9],[34.879,65.436],[34.944,64.414],[36.231,64.109],[37.013,63.85],[37.142,64.335],[36.54,64.764],[37.176,65.143],[39.593,64.521],[40.436,64.764],[39.763,65.497],[42.093,66.476],[43.016,66.419],[43.95,66.069],[44.532,66.756],[43.698,67.352],[44.188,67.951],[43.453,68.571],[46.25,68.25],[46.821,67.69],[45.555,67.567],[45.562,67.01],[46.349,66.668],[47.894,66.885],[48.139,67.522],[50.228,67.999],[53.717,68.857],[54.472,68.808],[53.486,68.201],[54.726,68.097],[55.443,68.439],[57.317,68.466],[58.802,68.881],[59.941,68.278],[61.078,68.941],[60.03,69.52],[60.55,69.85],[63.504,69.547],[64.888,69.235],[68.512,68.092],[69.181,68.616],[68.164,69.144],[68.135,69.356],[66.93,69.455],[67.26,69.929],[66.725,70.709],[66.695,71.029],[68.54,71.935],[69.196,72.843],[69.94,73.04],[72.588,72.776],[72.796,72.22],[71.848,71.409],[72.47,71.09],[72.792,70.391],[72.565,69.021],[73.668,68.408],[73.239,67.74],[71.28,66.32],[72.423,66.173],[72.821,66.533],[73.921,66.789],[74.187,67.284],[75.052,67.76],[74.469,68.329],[74.936,68.989],[73.842,69.071],[73.602,69.628],[74.4,70.632],[73.101,71.447],[74.891,72.121],[74.659,72.832],[75.158,72.855],[75.684,72.301],[75.289,71.336],[76.359,71.153],[75.903,71.874],[77.577,72.267],[79.652,72.32],[81.5,71.75],[80.611,72.583],[80.511,73.648],[82.25,73.85],[84.655,73.806],[86.822,73.937],[86.01,74.46],[87.167,75.116],[88.316,75.144],[90.26,75.64],[92.901,75.773],[93.234,76.047],[95.86,76.14],[96.678,75.915],[98.923,76.447],[100.76,76.43],[101.035,76.862],[101.991,77.288],[104.352,77.698],[106.067,77.374],[104.705,77.127],[106.97,76.974],[107.24,76.48],[108.154,76.723],[111.077,76.71],[113.332,76.222],[114.134,75.848],[113.885,75.328],[112.779,75.032],[110.151,74.477],[109.4,74.18],[110.64,74.04],[112.119,73.788],[113.02,73.977],[113.53,73.335],[113.969,73.595],[115.568,73.753],[118.776,73.588],[119.02,73.12],[123.201,72.971],[123.258,73.735],[125.38,73.56],[126.976,73.565],[128.591,73.039],[129.052,72.399],[128.46,71.98],[129.716,71.193],[131.289,70.787],[132.254,71.836],[133.858,71.386],[135.562,71.655],[137.498,71.348],[138.234,71.628],[139.87,71.488],[139.148,72.416],[140.468,72.849],[149.5,72.2],[150.351,71.606],[152.969,70.842],[157.007,71.031],[158.998,70.867],[159.83,70.453],[159.709,69.722],[160.941,69.437],[162.279,69.642],[164.052,69.668],[165.94,69.472],[167.836,69.583],[169.578,68.694],[170.817,69.014],[170.008,69.653],[170.453,70.097],[173.644,69.817],[175.724,69.877],[178.6,69.4],[180,68.964],[180,64.98],[179.993,64.974],[178.707,64.535],[177.411,64.608],[178.313,64.076],[178.908,63.252],[179.37,62.983],[179.486,62.569],[179.228,62.304],[177.364,62.522],[174.569,61.769],[173.68,61.653],[172.15,60.95],[170.699,60.336],[170.331,59.882],[168.9,60.574],[166.295,59.789],[165.84,60.16],[164.877,59.732],[163.539,59.869],[163.217,59.211],[162.017,58.243],[162.053,57.839],[163.192,57.615],[163.058,56.159],[162.13,56.122],[161.701,55.286],[162.117,54.855],[160.369,54.344],[160.022,53.203],[158.531,52.959],[158.231,51.943],[156.79,51.011],[156.42,51.7],[155.992,53.159],[155.434,55.381],[155.914,56.768],[156.758,57.365],[156.81,57.832],[158.364,58.056],[160.151,59.315],[161.872,60.343],[163.67,61.141],[164.474,62.551],[163.258,62.466],[162.658,61.643],[160.121,60.544],[159.302,61.774],[156.721,61.434],[154.218,59.758],[155.044,59.145],[152.812,58.884],[151.266,58.781],[151.338,59.504],[149.784,59.656],[148.545,59.164],[145.487,59.336],[142.198,59.04],[138.958,57.088],[135.126,54.73],[136.702,54.604],[137.193,53.977],[138.165,53.755],[138.805,54.255],[139.902,54.19],[141.345,53.09],[141.379,52.239],[140.597,51.24],[140.513,50.046],[140.062,48.447],[138.555,47],[138.22,46.308],[136.862,45.144],[135.515,43.989],[134.869,43.398],[133.537,42.811],[132.906,42.798],[132.278,43.285],[130.936,42.553],[130.78,42.22],[130.78,42.22],[130.78,42.22],[130.78,42.22],[130.64,42.395],[130.64,42.395],[130.634,42.903],[131.145,42.93],[131.289,44.112],[131.025,44.968],[131.883,45.321],[133.097,45.144],[133.77,46.117],[134.112,47.212],[134.501,47.578],[135.026,48.478],[133.374,48.183],[132.507,47.789],[130.987,47.79],[130.582,48.73],[129.398,49.441],[127.657,49.76],[127.287,50.74],[126.939,51.354],[126.564,51.784],[125.946,52.793],[125.068,53.161],[123.571,53.459],[122.246,53.432],[121.003,53.251],[120.177,52.754],[120.726,52.516],[120.738,51.964],[120.182,51.644],[119.279,50.583],[119.288,50.143],[117.879,49.511],[116.679,49.889],[115.486,49.805],[114.962,50.14],[114.362,50.248],[112.898,49.544],[111.581,49.378],[110.662,49.13],[109.402,49.293],[108.475,49.283],[107.868,49.794],[106.889,50.274],[105.887,50.406],[104.622,50.275],[103.677,50.09],[102.256,50.511],[102.065,51.26],[100.889,51.517],[99.982,51.634],[98.861,52.047],[97.826,51.011],[98.232,50.422],[97.26,49.726],[95.814,49.977],[94.816,50.013],[94.148,50.481],[93.104,50.495],[92.235,50.802],[90.714,50.332],[88.806,49.471],[87.751,49.297],[87.36,49.215],[86.829,49.827],[85.541,49.693],[85.116,50.117],[84.416,50.311],[83.935,50.889],[83.383,51.069],[81.946,50.812],[80.568,51.388],[80.036,50.865],[77.801,53.404],[76.525,54.177],[76.891,54.491],[74.385,53.547],[73.426,53.49],[73.509,54.036],[72.224,54.377],[71.18,54.133],[70.865,55.17],[69.068,55.385],[68.169,54.97],[65.667,54.601],[65.179,54.354],[61.437,54.006],[60.978,53.665],[61.7,52.98],[60.74,52.72],[60.927,52.448],[59.968,51.96],[61.588,51.273],[61.337,50.799],[59.933,50.842],[59.642,50.545],[58.363,51.064],[56.778,51.044],[55.717,50.622],[54.533,51.026],[52.329,51.719],[50.767,51.693],[48.702,50.605],[48.578,49.875],[47.549,50.455],[46.752,49.356],[47.044,49.152],[46.466,48.394],[47.315,47.716],[48.057,47.744],[48.695,47.076],[48.593,46.561],[49.101,46.399]]],[[[93.778,81.025],[95.941,81.25],[97.884,80.747],[100.187,79.78],[99.94,78.881],[97.758,78.756],[94.973,79.045],[93.313,79.427],[92.545,80.144],[91.181,80.341],[93.778,81.025]]],[[[102.838,79.281],[105.372,78.713],[105.075,78.307],[99.438,77.921],[101.265,79.234],[102.086,79.346],[102.838,79.281]]],[[[138.831,76.137],[141.472,76.093],[145.086,75.563],[144.3,74.82],[140.614,74.848],[138.955,74.611],[136.974,75.262],[137.512,75.949],[138.831,76.137]]],[[[148.222,75.346],[150.732,75.084],[149.576,74.689],[147.977,74.778],[146.119,75.173],[146.358,75.497],[148.222,75.346]]],[[[139.863,73.37],[140.812,73.765],[142.062,73.858],[143.483,73.475],[143.604,73.212],[142.088,73.205],[140.038,73.317],[139.863,73.37]]],[[[44.847,80.59],[46.799,80.772],[48.318,80.784],[48.523,80.515],[49.097,80.754],[50.04,80.919],[51.523,80.7],[51.136,80.547],[49.794,80.415],[48.894,80.34],[48.755,80.175],[47.586,80.01],[46.503,80.247],[47.072,80.559],[44.847,80.59]]],[[[22.731,54.328],[20.892,54.313],[19.661,54.426],[19.888,54.866],[21.268,55.19],[22.316,55.015],[22.758,54.857],[22.651,54.583],[22.731,54.328]]],[[[53.508,73.75],[55.902,74.627],[55.632,75.081],[57.869,75.609],[61.17,76.252],[64.498,76.439],[66.211,76.81],[68.157,76.94],[68.852,76.545],[68.181,76.234],[64.637,75.738],[61.584,75.261],[58.477,74.309],[56.987,73.333],[55.419,72.371],[55.623,71.541],[57.536,70.72],[56.945,70.633],[53.677,70.763],[53.412,71.207],[51.602,71.475],[51.456,72.015],[52.478,72.229],[52.444,72.775],[54.428,73.628],[53.508,73.75]]],[[[142.915,53.705],[143.261,52.741],[143.235,51.757],[143.648,50.748],[144.654,48.976],[143.174,49.307],[142.559,47.862],[143.533,46.837],[143.505,46.138],[142.748,46.741],[142.092,45.967],[141.907,46.806],[142.018,47.78],[141.904,48.859],[142.136,49.615],[142.18,50.952],[141.594,51.935],[141.683,53.302],[142.607,53.762],[142.21,54.225],[142.655,54.366],[142.915,53.705]]],[[[-174.928,67.206],[-175.014,66.584],[-174.34,66.336],[-174.572,67.062],[-171.857,66.913],[-169.9,65.977],[-170.891,65.541],[-172.53,65.438],[-172.555,64.461],[-172.955,64.253],[-173.892,64.283],[-174.654,64.631],[-175.984,64.923],[-176.207,65.357],[-177.223,65.52],[-178.36,65.391],[-178.903,65.74],[-178.686,66.112],[-179.884,65.875],[-179.433,65.404],[-180,64.98],[-180,68.964],[-177.55,68.2],[-174.928,67.206]]],[[[-178.694,70.893],[-180,70.832],[-180,71.516],[-179.872,71.558],[-179.024,71.556],[-177.578,71.269],[-177.664,71.133],[-178.694,70.893]]],[[[33.436,45.972],[33.699,46.22],[34.41,46.005],[34.732,45.966],[34.862,45.768],[35.013,45.738],[35.021,45.651],[35.51,45.41],[36.53,45.47],[36.335,45.113],[35.24,44.94],[33.883,44.361],[33.326,44.565],[33.547,45.035],[32.454,45.327],[32.631,45.519],[33.588,45.852],[33.436,45.972]]]]}},{"type":"Feature","properties":{"fill":"#f0d8a8","name":"Timor-Leste"},"geometry":{"type":"Polygon","coordinates":[[[124.969,-8.893],[125.086,-8.657],[125.947,-8.432],[126.645,-8.398],[126.957,-8.273],[127.336,-8.397],[126.968,-8.668],[125.926,-9.106],[125.089,-9.393],[125.07,-9.09],[124.969,-8.893]]]}},{"type":"Feature","properties":{"fill":"#f0d8a8","name":"Cambodia"},"geometry":{"type":"Polygon","coordinates":[[[102.585,12.187],[102.348,13.394],[102.988,14.226],[104.281,14.417],[105.219,14.273],[106.044,13.881],[106.496,14.571],[107.383,14.202],[107.615,13.536],[107.491,12.337],[105.811,11.568],[106.25,10.962],[105.2,10.889],[104.334,10.487],[103.497,10.633],[103.091,11.154],[102.585,12.187]]]}},{"type":"Feature","properties":{"fill":"#84c0b4","name":"Thailand"},"geometry":{"type":"Polygon","coordinates":[[[105.219,14.273],[104.281,14.417],[102.988,14.226],[102.348,13.394],[102.585,12.187],[101.687,12.646],[100.832,12.627],[100.978,13.413],[100.098,13.407],[100.019,12.307],[99.479,10.846],[99.154,9.963],[99.222,9.239],[99.874,9.208],[100.28,8.295],[100.459,7.43],[101.017,6.857],[101.623,6.741],[102.141,6.222],[101.814,5.811],[101.154,5.691],[101.076,6.205],[100.26,6.643],[100.086,6.464],[99.691,6.848],[99.52,7.343],[98.988,7.908],[98.504,8.382],[98.34,7.795],[98.15,8.35],[98.259,8.974],[98.554,9.933],[99.038,10.961],[99.587,11.893],[99.196,12.805],[99.212,13.269],[99.098,13.828],[98.431,14.622],[98.192,15.124],[98.537,15.308],[98.903,16.178],[98.494,16.838],[97.859,17.568],[97.376,18.445],[97.798,18.627],[98.254,19.708],[98.96,19.753],[99.543,20.187],[100.116,20.418],[100.549,20.109],[100.606,19.508],[101.282,19.463],[101.036,18.409],[101.06,17.512],[102.114,18.109],[102.413,17.933],[102.999,17.962],[103.2,18.31],[103.956,18.241],[104.717,17.429],[104.779,16.442],[105.589,15.57],[105.544,14.724],[105.219,14.273]]]}},{"type":"Feature","properties":{"fill":"#a8cc84","name":"Laos"},"geometry":{"type":"Polygon","coordinates":[[[107.383,14.202],[106.496,14.571],[106.044,13.881],[105.219,14.273],[105.544,14.724],[105.589,15.57],[104.779,16.442],[104.717,17.429],[103.956,18.241],[103.2,18.31],[102.999,17.962],[102.413,17.933],[102.114,18.109],[101.06,17.512],[101.036,18.409],[101.282,19.463],[100.606,19.508],[100.549,20.109],[100.116,20.418],[100.329,20.786],[101.18,21.437],[101.27,21.202],[101.803,21.174],[101.652,22.318],[102.17,22.465],[102.755,21.675],[103.204,20.767],[104.435,20.759],[104.823,19.887],[104.183,19.625],[103.897,19.265],[105.095,18.667],[105.926,17.485],[106.556,16.604],[107.313,15.909],[107.565,15.202],[107.383,14.202]]]}},{"type":"Feature","properties":{"fill":"#f0b478","name":"Myanmar"},"geometry":{"type":"Polygon","coordinates":[[[100.116,20.418],[99.543,20.187],[98.96,19.753],[98.254,19.708],[97.798,18.627],[97.376,18.445],[97.859,17.568],[98.494,16.838],[98.903,16.178],[98.537,15.308],[98.192,15.124],[98.431,14.622],[99.098,13.828],[99.212,13.269],[99.196,12.805],[99.587,11.893],[99.038,10.961],[98.554,9.933],[98.457,10.675],[98.765,11.441],[98.428,12.033],[98.51,13.122],[98.104,13.64],[97.778,14.837],[97.597,16.101],[97.165,16.929],[96.506,16.427],[95.369,15.714],[94.808,15.803],[94.189,16.038],[94.533,17.277],[94.325,18.214],[93.541,19.366],[93.663,19.727],[93.078,19.855],[92.369,20.671],[92.303,21.475],[92.652,21.324],[92.673,22.041],[93.166,22.278],[93.06,22.703],[93.286,23.044],[93.325,24.079],[94.107,23.851],[94.553,24.675],[94.603,25.162],[95.155,26.001],[95.125,26.574],[96.419,27.265],[97.134,27.084],[97.052,27.699],[97.403,27.883],[97.327,28.262],[97.912,28.336],[98.246,27.747],[98.683,27.509],[98.712,26.744],[98.672,25.919],[97.725,25.084],[97.605,23.897],[98.66,24.063],[98.899,23.143],[99.532,22.949],[99.241,22.118],[99.983,21.743],[100.417,21.559],[101.15,21.85],[101.18,21.437],[100.329,20.786],[100.116,20.418]]]}},{"type":"Feature","properties":{"fill":"#f0b478","name":"Vietnam"},"geometry":{"type":"Polygon","coordinates":[[[104.334,10.487],[105.2,10.889],[106.25,10.962],[105.811,11.568],[107.491,12.337],[107.615,13.536],[107.383,14.202],[107.565,15.202],[107.313,15.909],[106.556,16.604],[105.926,17.485],[105.095,18.667],[103.897,19.265],[104.183,19.625],[104.823,19.887],[104.435,20.759],[103.204,20.767],[102.755,21.675],[102.17,22.465],[102.707,22.709],[103.505,22.704],[104.477,22.819],[105.329,23.352],[105.811,22.977],[106.725,22.794],[106.567,22.218],[107.043,21.812],[108.05,21.552],[106.715,20.697],[105.882,19.752],[105.662,19.058],[106.427,18.004],[107.362,16.697],[108.269,16.08],[108.877,15.277],[109.335,13.426],[109.2,11.667],[108.366,11.008],[107.221,10.364],[106.405,9.531],[105.158,8.6],[104.795,9.241],[105.076,9.918],[104.334,10.487]]]}},{"type":"Feature","properties":{"fill":"#f0b478","name":"North Korea"},"geometry":{"type":"MultiPolygon","coordinates":[[[[130.78,42.22],[130.78,42.22],[130.78,42.22],[130.78,42.22]]],[[[130.64,42.395],[130.64,42.395],[130.78,42.22],[130.4,42.28],[129.966,41.941],[129.667,41.601],[129.705,40.883],[129.188,40.662],[129.01,40.485],[128.633,40.19],[127.967,40.025],[127.533,39.757],[127.502,39.324],[127.385,39.213],[127.783,39.051],[128.35,38.612],[128.206,38.37],[127.78,38.305],[127.073,38.256],[126.684,37.805],[126.237,37.84],[126.175,37.75],[125.689,37.94],[125.568,37.752],[125.275,37.669],[125.24,37.857],[124.981,37.949],[124.712,38.108],[124.986,38.548],[125.222,38.666],[125.133,38.849],[125.387,39.388],[125.321,39.551],[124.737,39.66],[124.266,39.928],[125.08,40.57],[126.182,41.107],[126.869,41.817],[127.344,41.503],[128.208,41.467],[128.052,41.994],[129.597,42.425],[129.994,42.985],[130.64,42.395]]]]}},{"type":"Feature","properties":{"fill":"#84c0b4","name":"South Korea"},"geometry":{"type":"Polygon","coordinates":[[[126.175,37.75],[126.237,37.84],[126.684,37.805],[127.073,38.256],[127.78,38.305],[128.206,38.37],[128.35,38.612],[129.213,37.432],[129.46,36.784],[129.468,35.632],[129.091,35.082],[128.186,34.89],[127.387,34.476],[126.486,34.39],[126.374,34.935],[126.559,35.685],[126.117,36.725],[126.86,36.894],[126.175,37.75]]]}},{"type":"Feature","properties":{"fill":"#a8cc84","name":"Mongolia"},"geometry":{"type":"Polygon","coordinates":[[[87.751,49.297],[88.806,49.471],[90.714,50.332],[92.235,50.802],[93.104,50.495],[94.148,50.481],[94.816,50.013],[95.814,49.977],[97.26,49.726],[98.232,50.422],[97.826,51.011],[98.861,52.047],[99.982,51.634],[100.889,51.517],[102.065,51.26],[102.256,50.511],[103.677,50.09],[104.622,50.275],[105.887,50.406],[106.889,50.274],[107.868,49.794],[108.475,49.283],[109.402,49.293],[110.662,49.13],[111.581,49.378],[112.898,49.544],[114.362,50.248],[114.962,50.14],[115.486,49.805],[116.679,49.889],[116.192,49.135],[115.485,48.135],[115.743,47.727],[116.309,47.853],[117.296,47.698],[118.064,48.067],[118.867,47.747],[119.773,47.048],[119.663,46.693],[118.874,46.805],[117.422,46.673],[116.718,46.388],[115.985,45.727],[114.46,45.34],[113.464,44.809],[112.436,45.012],[111.873,45.102],[111.348,44.457],[111.668,44.073],[111.83,43.743],[111.13,43.407],[110.412,42.871],[109.244,42.519],[107.745,42.482],[106.129,42.134],[104.965,41.597],[104.522,41.908],[103.312,41.907],[101.833,42.515],[100.846,42.664],[99.516,42.525],[97.452,42.749],[96.349,42.726],[95.762,43.319],[95.307,44.241],[94.689,44.352],[93.481,44.975],[92.134,45.115],[90.946,45.286],[90.586,45.72],[90.971,46.888],[90.281,47.694],[88.854,48.069],[88.014,48.599],[87.751,49.297]]]}},{"type":"Feature","properties":{"fill":"#b4ccb4","name":"India"},"geometry":{"type":"Polygon","coordinates":[[[97.327,28.262],[97.403,27.883],[97.052,27.699],[97.134,27.084],[96.419,27.265],[95.125,26.574],[95.155,26.001],[94.603,25.162],[94.553,24.675],[94.107,23.851],[93.325,24.079],[93.286,23.044],[93.06,22.703],[93.166,22.278],[92.673,22.041],[92.146,23.627],[91.87,23.624],[91.706,22.985],[91.159,23.504],[91.468,24.073],[91.915,24.13],[92.376,24.977],[91.8,25.147],[90.872,25.133],[89.921,25.27],[89.832,25.965],[89.355,26.014],[88.563,26.447],[88.21,25.768],[88.932,25.239],[88.306,24.866],[88.084,24.502],[88.7,24.234],[88.53,23.631],[88.876,22.879],[89.032,22.056],[88.889,21.691],[88.208,21.703],[86.976,21.496],[87.033,20.743],[86.499,20.152],[85.06,19.479],[83.941,18.302],[83.189,17.671],[82.193,17.017],[82.191,16.557],[81.693,16.31],[80.792,15.952],[80.325,15.899],[80.025,15.136],[80.233,13.836],[80.286,13.006],[79.863,12.056],[79.858,10.357],[79.341,10.309],[78.885,9.546],[79.19,9.217],[78.278,8.933],[77.941,8.253],[77.54,7.966],[76.593,8.899],[76.13,10.3],[75.746,11.308],[75.396,11.781],[74.865,12.742],[74.617,13.993],[74.444,14.617],[73.534,15.991],[73.12,17.929],[72.821,19.208],[72.824,20.42],[72.631,21.356],[71.175,20.757],[70.47,20.877],[69.164,22.089],[69.645,22.451],[69.35,22.843],[68.177,23.692],[68.843,24.359],[71.043,24.357],[70.845,25.215],[70.283,25.722],[70.169,26.492],[69.514,26.941],[70.616,27.989],[71.778,27.913],[72.824,28.962],[73.451,29.976],[74.421,30.98],[74.406,31.693],[75.259,32.271],[74.452,32.765],[74.104,33.441],[73.75,34.318],[74.24,34.749],[75.757,34.505],[76.872,34.654],[77.837,35.494],[78.912,34.322],[78.811,33.506],[79.209,32.994],[79.176,32.484],[78.458,32.618],[78.739,31.516],[79.721,30.883],[81.111,30.183],[80.477,29.73],[80.088,28.794],[81.057,28.416],[82,27.925],[83.304,27.365],[84.675,27.235],[85.252,26.726],[86.024,26.631],[87.227,26.398],[88.06,26.415],[88.175,26.81],[88.043,27.446],[88.12,27.877],[88.73,28.087],[88.814,27.299],[88.836,27.099],[89.745,26.719],[90.373,26.876],[91.218,26.809],[92.033,26.838],[92.104,27.453],[91.697,27.772],[92.503,27.897],[93.413,28.641],[94.566,29.277],[95.405,29.032],[96.118,29.453],[96.587,28.831],[96.249,28.411],[97.327,28.262]]]}},{"type":"Feature","properties":{"fill":"#f0d8a8","name":"Bangladesh"},"geometry":{"type":"Polygon","coordinates":[[[92.673,22.041],[92.652,21.324],[92.303,21.475],[92.369,20.671],[92.083,21.192],[92.025,21.702],[91.835,22.183],[91.417,22.765],[90.496,22.805],[90.587,22.393],[90.273,21.836],[89.847,22.039],[89.702,21.857],[89.419,21.966],[89.032,22.056],[88.876,22.879],[88.53,23.631],[88.7,24.234],[88.084,24.502],[88.306,24.866],[88.932,25.239],[88.21,25.768],[88.563,26.447],[89.355,26.014],[89.832,25.965],[89.921,25.27],[90.872,25.133],[91.8,25.147],[92.376,24.977],[91.915,24.13],[91.468,24.073],[91.159,23.504],[91.706,22.985],[91.87,23.624],[92.146,23.627],[92.673,22.041]]]}},{"type":"Feature","properties":{"fill":"#f0b478","name":"Bhutan"},"geometry":{"type":"Polygon","coordinates":[[[91.697,27.772],[92.104,27.453],[92.033,26.838],[91.218,26.809],[90.373,26.876],[89.745,26.719],[88.836,27.099],[88.814,27.299],[89.476,28.043],[90.016,28.296],[90.731,28.065],[91.259,28.041],[91.697,27.772]]]}},{"type":"Feature","properties":{"fill":"#fccc84","name":"Nepal"},"geometry":{"type":"Polygon","coordinates":[[[88.12,27.877],[88.043,27.446],[88.175,26.81],[88.06,26.415],[87.227,26.398],[86.024,26.631],[85.252,26.726],[84.675,27.235],[83.304,27.365],[82,27.925],[81.057,28.416],[80.088,28.794],[80.477,29.73],[81.111,30.183],[81.526,30.423],[82.328,30.115],[83.337,29.464],[83.899,29.32],[84.235,28.84],[85.012,28.643],[85.823,28.204],[86.955,27.974],[88.12,27.877]]]}},{"type":"Feature","properties":{"fill":"#fccc84","name":"Pakistan"},"geometry":{"type":"Polygon","coordinates":[[[77.837,35.494],[76.872,34.654],[75.757,34.505],[74.24,34.749],[73.75,34.318],[74.104,33.441],[74.452,32.765],[75.259,32.271],[74.406,31.693],[74.421,30.98],[73.451,29.976],[72.824,28.962],[71.778,27.913],[70.616,27.989],[69.514,26.941],[70.169,26.492],[70.283,25.722],[70.845,25.215],[71.043,24.357],[68.843,24.359],[68.177,23.692],[67.444,23.945],[67.145,24.664],[66.373,25.425],[64.53,25.237],[62.906,25.218],[61.497,25.078],[61.874,26.24],[63.317,26.757],[63.234,27.217],[62.755,27.379],[62.728,28.26],[61.772,28.699],[61.369,29.303],[60.874,29.829],[62.55,29.319],[63.55,29.468],[64.148,29.341],[64.35,29.56],[65.047,29.472],[66.346,29.888],[66.381,30.739],[66.939,31.305],[67.683,31.303],[67.793,31.583],[68.557,31.713],[68.927,31.62],[69.318,31.901],[69.263,32.502],[69.687,33.105],[70.324,33.359],[69.931,34.02],[70.882,33.989],[71.157,34.349],[71.115,34.733],[71.613,35.153],[71.499,35.651],[71.262,36.074],[71.846,36.51],[72.92,36.72],[74.068,36.836],[74.576,37.021],[75.158,37.133],[75.897,36.667],[76.193,35.898],[77.837,35.494]]]}},{"type":"Feature","properties":{"fill":"#a8cc84","name":"Afghanistan"},"geometry":{"type":"Polygon","coordinates":[[[66.519,37.363],[67.076,37.356],[67.83,37.145],[68.136,37.023],[68.859,37.344],[69.196,37.151],[69.519,37.609],[70.117,37.588],[70.271,37.735],[70.376,38.138],[70.807,38.486],[71.348,38.259],[71.239,37.953],[71.542,37.906],[71.449,37.066],[71.845,36.738],[72.193,36.948],[72.637,37.048],[73.26,37.495],[73.949,37.422],[74.98,37.42],[75.158,37.133],[74.576,37.021],[74.068,36.836],[72.92,36.72],[71.846,36.51],[71.262,36.074],[71.499,35.651],[71.613,35.153],[71.115,34.733],[71.157,34.349],[70.882,33.989],[69.931,34.02],[70.324,33.359],[69.687,33.105],[69.263,32.502],[69.318,31.901],[68.927,31.62],[68.557,31.713],[67.793,31.583],[67.683,31.303],[66.939,31.305],[66.381,30.739],[66.346,29.888],[65.047,29.472],[64.35,29.56],[64.148,29.341],[63.55,29.468],[62.55,29.319],[60.874,29.829],[61.781,30.736],[61.699,31.38],[60.942,31.548],[60.864,32.183],[60.536,32.981],[60.964,33.529],[60.528,33.676],[60.803,34.404],[61.211,35.65],[62.231,35.271],[62.985,35.404],[63.194,35.857],[63.983,36.008],[64.546,36.312],[64.746,37.112],[65.589,37.305],[65.746,37.661],[66.217,37.394],[66.519,37.363]]]}},{"type":"Feature","properties":{"fill":"#fccc84","name":"Tajikistan"},"geometry":{"type":"Polygon","coordinates":[[[67.83,37.145],[68.392,38.157],[68.176,38.902],[67.442,39.14],[67.701,39.58],[68.536,39.533],[69.012,40.086],[69.329,40.728],[70.667,40.96],[70.458,40.496],[70.601,40.219],[71.014,40.244],[70.648,39.936],[69.56,40.103],[69.465,39.527],[70.549,39.604],[71.785,39.279],[73.675,39.431],[73.929,38.506],[74.258,38.607],[74.865,38.379],[74.83,37.99],[74.98,37.42],[73.949,37.422],[73.26,37.495],[72.637,37.048],[72.193,36.948],[71.845,36.738],[71.449,37.066],[71.542,37.906],[71.239,37.953],[71.348,38.259],[70.807,38.486],[70.376,38.138],[70.271,37.735],[70.117,37.588],[69.519,37.609],[69.196,37.151],[68.859,37.344],[68.136,37.023],[67.83,37.145]]]}},{"type":"Feature","properties":{"fill":"#f0b478","name":"Kyrgyzstan"},"geometry":{"type":"Polygon","coordinates":[[[70.962,42.266],[71.186,42.704],[71.845,42.845],[73.49,42.501],[73.645,43.091],[74.213,43.298],[75.637,42.878],[76,42.988],[77.658,42.961],[79.142,42.856],[79.644,42.497],[80.26,42.35],[80.119,42.124],[78.544,41.582],[78.187,41.185],[76.904,41.066],[76.526,40.428],[75.468,40.562],[74.777,40.366],[73.822,39.894],[73.96,39.66],[73.675,39.431],[71.785,39.279],[70.549,39.604],[69.465,39.527],[69.56,40.103],[70.648,39.936],[71.014,40.244],[71.775,40.146],[73.055,40.866],[71.87,41.393],[71.158,41.144],[70.42,41.52],[71.259,42.168],[70.962,42.266]]]}},{"type":"Feature","properties":{"fill":"#fccc84","name":"Turkmenistan"},"geometry":{"type":"Polygon","coordinates":[[[52.502,41.783],[52.944,42.116],[54.079,42.324],[54.755,42.044],[55.455,41.26],[55.968,41.309],[57.096,41.322],[56.932,41.826],[57.787,42.171],[58.629,42.752],[59.976,42.223],[60.083,41.425],[60.466,41.22],[61.547,41.266],[61.883,41.085],[62.374,40.054],[63.518,39.363],[64.17,38.892],[65.216,38.403],[66.546,37.975],[66.519,37.363],[66.217,37.394],[65.746,37.661],[65.589,37.305],[64.746,37.112],[64.546,36.312],[63.983,36.008],[63.194,35.857],[62.985,35.404],[62.231,35.271],[61.211,35.65],[61.123,36.492],[60.378,36.527],[59.235,37.413],[58.436,37.522],[57.33,38.029],[56.619,38.121],[56.18,37.935],[55.512,37.964],[54.8,37.392],[53.922,37.199],[53.736,37.906],[53.881,38.952],[53.101,39.291],[53.358,39.975],[52.694,40.034],[52.915,40.877],[53.858,40.631],[54.737,40.951],[54.008,41.551],[53.722,42.123],[52.917,41.868],[52.815,41.135],[52.502,41.783]]]}},{"type":"Feature","properties":{"fill":"#fccc84","name":"Armenia"},"geometry":{"type":"Polygon","coordinates":[[[46.506,38.771],[46.144,38.741],[45.735,39.32],[45.74,39.474],[45.298,39.472],[45.002,39.74],[44.794,39.713],[44.4,40.005],[43.656,40.254],[43.753,40.74],[43.583,41.092],[44.972,41.248],[45.179,40.985],[45.56,40.812],[45.359,40.562],[45.892,40.218],[45.61,39.9],[46.035,39.628],[46.483,39.464],[46.506,38.771]]]}},{"type":"Feature","properties":{"fill":"#f0b478","name":"Sri Lanka"},"geometry":{"type":"Polygon","coordinates":[[[81.788,7.523],[81.637,6.482],[81.218,6.197],[80.348,5.968],[79.872,6.763],[79.695,8.201],[80.148,9.824],[80.839,9.268],[81.304,8.564],[81.788,7.523]]]}},{"type":"Feature","properties":{"fill":"#84c0b4","name":"China"},"geometry":{"type":"MultiPolygon","coordinates":[[[[109.475,18.198],[108.655,18.508],[108.626,19.368],[109.119,19.821],[110.212,20.101],[110.787,20.078],[111.01,19.696],[110.571,19.256],[110.339,18.678],[109.475,18.198]]],[[[80.26,42.35],[80.18,42.92],[80.866,43.18],[79.966,44.918],[81.947,45.317],[82.459,45.54],[83.18,47.33],[85.164,47.001],[85.72,47.453],[85.768,48.456],[86.599,48.549],[87.36,49.215],[87.751,49.297],[88.014,48.599],[88.854,48.069],[90.281,47.694],[90.971,46.888],[90.586,45.72],[90.946,45.286],[92.134,45.115],[93.481,44.975],[94.689,44.352],[95.307,44.241],[95.762,43.319],[96.349,42.726],[97.452,42.749],[99.516,42.525],[100.846,42.664],[101.833,42.515],[103.312,41.907],[104.522,41.908],[104.965,41.597],[106.129,42.134],[107.745,42.482],[109.244,42.519],[110.412,42.871],[111.13,43.407],[111.83,43.743],[111.668,44.073],[111.348,44.457],[111.873,45.102],[112.436,45.012],[113.464,44.809],[114.46,45.34],[115.985,45.727],[116.718,46.388],[117.422,46.673],[118.874,46.805],[119.663,46.693],[119.773,47.048],[118.867,47.747],[118.064,48.067],[117.296,47.698],[116.309,47.853],[115.743,47.727],[115.485,48.135],[116.192,49.135],[116.679,49.889],[117.879,49.511],[119.288,50.143],[119.279,50.583],[120.182,51.644],[120.738,51.964],[120.726,52.516],[120.177,52.754],[121.003,53.251],[122.246,53.432],[123.571,53.459],[125.068,53.161],[125.946,52.793],[126.564,51.784],[126.939,51.354],[127.287,50.74],[127.657,49.76],[129.398,49.441],[130.582,48.73],[130.987,47.79],[132.507,47.789],[133.374,48.183],[135.026,48.478],[134.501,47.578],[134.112,47.212],[133.77,46.117],[133.097,45.144],[131.883,45.321],[131.025,44.968],[131.289,44.112],[131.145,42.93],[130.634,42.903],[130.64,42.395],[129.994,42.985],[129.597,42.425],[128.052,41.994],[128.208,41.467],[127.344,41.503],[126.869,41.817],[126.182,41.107],[125.08,40.57],[124.266,39.928],[122.868,39.638],[122.131,39.17],[121.055,38.897],[121.586,39.361],[121.377,39.75],[122.169,40.422],[121.64,40.946],[120.769,40.593],[119.64,39.898],[119.023,39.252],[118.043,39.204],[117.533,38.738],[118.06,38.061],[118.878,37.897],[118.912,37.448],[119.703,37.156],[120.823,37.87],[121.711,37.481],[122.358,37.454],[122.52,36.931],[121.104,36.651],[120.637,36.111],[119.665,35.61],[119.151,34.91],[120.228,34.36],[120.62,33.377],[121.229,32.46],[121.908,31.692],[121.892,30.949],[121.264,30.676],[121.504,30.143],[122.092,29.833],[121.938,29.018],[121.684,28.226],[121.126,28.136],[120.395,27.053],[119.585,25.741],[118.657,24.547],[117.282,23.625],[115.891,22.783],[114.764,22.668],[114.153,22.224],[113.807,22.548],[113.241,22.051],[111.844,21.55],[110.785,21.397],[110.444,20.341],[109.89,20.282],[109.628,21.008],[109.864,21.395],[108.523,21.715],[108.05,21.552],[107.043,21.812],[106.567,22.218],[106.725,22.794],[105.811,22.977],[105.329,23.352],[104.477,22.819],[103.505,22.704],[102.707,22.709],[102.17,22.465],[101.652,22.318],[101.803,21.174],[101.27,21.202],[101.18,21.437],[101.15,21.85],[100.417,21.559],[99.983,21.743],[99.241,22.118],[99.532,22.949],[98.899,23.143],[98.66,24.063],[97.605,23.897],[97.725,25.084],[98.672,25.919],[98.712,26.744],[98.683,27.509],[98.246,27.747],[97.912,28.336],[97.327,28.262],[96.249,28.411],[96.587,28.831],[96.118,29.453],[95.405,29.032],[94.566,29.277],[93.413,28.641],[92.503,27.897],[91.697,27.772],[91.259,28.041],[90.731,28.065],[90.016,28.296],[89.476,28.043],[88.814,27.299],[88.73,28.087],[88.12,27.877],[86.955,27.974],[85.823,28.204],[85.012,28.643],[84.235,28.84],[83.899,29.32],[83.337,29.464],[82.328,30.115],[81.526,30.423],[81.111,30.183],[79.721,30.883],[78.739,31.516],[78.458,32.618],[79.176,32.484],[79.209,32.994],[78.811,33.506],[78.912,34.322],[77.837,35.494],[76.193,35.898],[75.897,36.667],[75.158,37.133],[74.98,37.42],[74.83,37.99],[74.865,38.379],[74.258,38.607],[73.929,38.506],[73.675,39.431],[73.96,39.66],[73.822,39.894],[74.777,40.366],[75.468,40.562],[76.526,40.428],[76.904,41.066],[78.187,41.185],[78.544,41.582],[80.119,42.124],[80.26,42.35]]]]}},{"type":"Feature","properties":{"fill":"#f0b478","name":"Taiwan"},"geometry":{"type":"Polygon","coordinates":[[[121.778,24.394],[121.176,22.791],[120.747,21.971],[120.22,22.815],[120.106,23.556],[120.695,24.538],[121.495,25.295],[121.951,24.998],[121.778,24.394]]]}},{"type":"Feature","properties":{"fill":"#84c0b4","name":"Azerbaijan"},"geometry":{"type":"MultiPolygon","coordinates":[[[[46.405,41.861],[46.686,41.827],[47.373,41.22],[47.816,41.151],[47.987,41.406],[48.584,41.809],[49.11,41.282],[49.619,40.573],[50.085,40.526],[50.393,40.257],[49.569,40.176],[49.395,39.399],[49.223,39.049],[48.857,38.815],[48.883,38.32],[48.634,38.27],[48.011,38.794],[48.356,39.289],[48.06,39.582],[47.685,39.508],[46.506,38.771],[46.483,39.464],[46.035,39.628],[45.61,39.9],[45.892,40.218],[45.359,40.562],[45.56,40.812],[45.179,40.985],[44.972,41.248],[45.217,41.411],[45.963,41.124],[46.502,41.064],[46.638,41.182],[46.145,41.723],[46.405,41.861]]],[[[46.144,38.741],[45.458,38.874],[44.953,39.336],[44.794,39.713],[45.002,39.74],[45.298,39.472],[45.74,39.474],[45.735,39.32],[46.144,38.741]]]]}},{"type":"Feature","properties":{"fill":"#f0b478","name":"Georgia"},"geometry":{"type":"Polygon","coordinates":[[[39.955,43.435],[40.077,43.553],[40.922,43.382],[42.394,43.22],[43.756,42.741],[43.931,42.555],[44.538,42.712],[45.47,42.503],[45.776,42.092],[46.405,41.861],[46.145,41.723],[46.638,41.182],[46.502,41.064],[45.963,41.124],[45.217,41.411],[44.972,41.248],[43.583,41.092],[42.62,41.583],[41.554,41.536],[41.703,41.963],[41.453,42.645],[40.875,43.014],[40.321,43.129],[39.955,43.435]]]}},{"type":"Feature","properties":{"fill":"#f0d8a8","name":"Philippines"},"geometry":{"type":"MultiPolygon","coordinates":[[[[120.834,12.704],[120.323,13.466],[121.18,13.43],[121.527,13.07],[121.262,12.206],[120.834,12.704]]],[[[122.586,9.981],[122.837,10.261],[122.947,10.882],[123.499,10.941],[123.338,10.267],[124.078,11.233],[123.982,10.279],[123.623,9.95],[123.31,9.318],[122.996,9.022],[122.38,9.713],[122.586,9.981]]],[[[126.377,8.415],[126.479,7.75],[126.537,7.189],[126.197,6.274],[125.831,7.294],[125.364,6.786],[125.683,6.05],[125.397,5.581],[124.22,6.161],[123.939,6.885],[124.244,7.361],[123.61,7.834],[123.296,7.419],[122.826,7.457],[122.085,6.899],[121.92,7.192],[122.312,8.035],[122.942,8.316],[123.488,8.693],[123.841,8.24],[124.601,8.514],[124.765,8.96],[125.471,8.987],[125.412,9.76],[126.223,9.286],[126.307,8.782],[126.377,8.415]]],[[[118.505,9.316],[117.174,8.368],[117.664,9.067],[118.387,9.685],[118.987,10.376],[119.511,11.37],[119.69,10.554],[119.029,10.004],[118.505,9.316]]],[[[122.337,18.225],[122.174,17.81],[122.516,17.094],[122.252,16.262],[121.663,15.931],[121.505,15.125],[121.729,14.328],[122.259,14.218],[122.701,14.337],[123.95,13.782],[123.855,13.238],[124.181,12.998],[124.077,12.537],[123.298,13.028],[122.929,13.553],[122.671,13.186],[122.035,13.784],[121.126,13.637],[120.629,13.858],[120.679,14.271],[120.992,14.525],[120.693,14.757],[120.564,14.396],[120.07,14.971],[119.921,15.406],[119.884,16.364],[120.286,16.035],[120.39,17.599],[120.716,18.505],[121.321,18.504],[121.938,18.219],[122.246,18.479],[122.337,18.225]]],[[[122.038,11.416],[121.884,11.892],[122.484,11.582],[123.12,11.584],[123.101,11.166],[122.638,10.741],[122.003,10.441],[121.967,10.906],[122.038,11.416]]],[[[125.503,12.163],[125.783,11.046],[125.012,11.311],[125.033,10.976],[125.277,10.359],[124.802,10.135],[124.76,10.838],[124.459,10.89],[124.303,11.495],[124.891,11.416],[124.878,11.794],[124.267,12.558],[125.227,12.536],[125.503,12.163]]]]}},{"type":"Feature","properties":{"fill":"#f0d8a8","name":"Malaysia"},"geometry":{"type":"MultiPolygon","coordinates":[[[[100.086,6.464],[100.26,6.643],[101.076,6.205],[101.154,5.691],[101.814,5.811],[102.141,6.222],[102.371,6.128],[102.962,5.524],[103.381,4.855],[103.439,4.182],[103.332,3.727],[103.429,3.383],[103.502,2.791],[103.855,2.515],[104.248,1.631],[104.229,1.293],[103.52,1.226],[102.574,1.967],[101.391,2.761],[101.274,3.27],[100.695,3.939],[100.557,4.767],[100.197,5.312],[100.306,6.041],[100.086,6.464]]],[[[117.882,4.138],[117.015,4.306],[115.866,4.307],[115.519,3.169],[115.134,2.821],[114.621,1.431],[113.806,1.218],[112.86,1.498],[112.38,1.41],[111.798,0.904],[111.159,0.976],[110.514,0.773],[109.83,1.338],[109.663,2.006],[110.396,1.664],[111.169,1.851],[111.37,2.697],[111.797,2.886],[112.996,3.102],[113.713,3.894],[114.204,4.526],[114.66,4.008],[114.87,4.348],[115.347,4.317],[115.406,4.955],[115.451,5.448],[116.221,6.143],[116.725,6.925],[117.13,6.928],[117.643,6.422],[117.689,5.987],[118.348,5.709],[119.182,5.408],[119.111,5.016],[118.44,4.967],[118.618,4.478],[117.882,4.138]]]]}},{"type":"Feature","properties":{"fill":"#a8cc84","name":"Brunei"},"geometry":{"type":"Polygon","coordinates":[[[115.451,5.448],[115.406,4.955],[115.347,4.317],[114.87,4.348],[114.66,4.008],[114.204,4.526],[114.6,4.9],[115.451,5.448]]]}},{"type":"Feature","properties":{"fill":"#f0d8a8","name":"Japan"},"geometry":{"type":"MultiPolygon","coordinates":[[[[141.885,39.181],[140.959,38.174],[140.976,37.142],[140.6,36.344],[140.774,35.843],[140.253,35.138],[138.976,34.668],[137.218,34.606],[135.793,33.465],[135.121,33.849],[135.079,34.597],[133.34,34.376],[132.157,33.905],[130.986,33.886],[132,33.15],[131.333,31.45],[130.686,31.03],[130.202,31.418],[130.448,32.319],[129.815,32.61],[129.408,33.296],[130.354,33.604],[130.878,34.233],[131.884,34.75],[132.618,35.433],[134.608,35.732],[135.678,35.527],[136.724,37.305],[137.391,36.827],[138.858,37.827],[139.426,38.216],[140.055,39.439],[139.883,40.563],[140.306,41.195],[141.369,41.379],[141.914,39.992],[141.885,39.181]]],[[[144.613,43.961],[145.321,44.385],[145.543,43.262],[144.06,42.988],[143.184,41.995],[141.611,42.679],[141.067,41.585],[139.955,41.57],[139.818,42.564],[140.312,43.333],[141.381,43.389],[141.672,44.772],[141.968,45.551],[143.143,44.51],[143.91,44.174],[144.613,43.961]]],[[[132.371,33.464],[132.924,34.06],[133.493,33.945],[133.904,34.365],[134.638,34.149],[134.766,33.806],[134.203,33.201],[133.793,33.522],[133.28,33.29],[133.015,32.705],[132.363,32.989],[132.371,33.464]]]]}}]}