{"type":"FeatureCollection","features":[{"type":"Feature","properties":{"fill":"#a8cc84","name":"Israel"},"geometry":{"type":"Polygon","coordinates":[[[35.72,32.709],[35.546,32.394],[35.184,32.533],[34.975,31.867],[35.226,31.754],[34.971,31.617],[34.927,31.353],[35.398,31.489],[35.421,31.1],[34.923,29.501],[34.823,29.761],[34.265,31.219],[34.265,31.219],[34.265,31.219],[34.556,31.549],[34.488,31.606],[34.753,32.073],[34.955,32.827],[35.098,33.081],[35.126,33.091],[35.461,33.089],[35.553,33.264],[35.821,33.277],[35.836,32.868],[35.701,32.716],[35.72,32.709]]]}},{"type":"Feature","properties":{"fill":"#f0d8a8","name":"Lebanon"},"geometry":{"type":"Polygon","coordinates":[[[35.821,33.277],[35.553,33.264],[35.461,33.089],[35.126,33.091],[35.482,33.905],[35.98,34.61],[35.998,34.645],[36.448,34.594],[36.612,34.202],[36.066,33.825],[35.821,33.277]]]}},{"type":"Feature","properties":{"fill":"#f0d8a8","name":"Jordan"},"geometry":{"type":"Polygon","coordinates":[[[35.546,32.394],[35.72,32.709],[36.834,32.313],[38.792,33.379],[39.195,32.161],[39.005,32.01],[37.002,31.508],[37.999,30.509],[37.668,30.339],[37.504,30.004],[36.741,29.865],[36.501,29.505],[36.069,29.197],[34.956,29.357],[34.923,29.501],[35.421,31.1],[35.398,31.489],[35.545,31.783],[35.546,32.394]]]}},{"type":"Feature","properties":{"fill":"#fccc84","name":"United Arab Emirates"},"geometry":{"type":"Polygon","coordinates":[[[51.58,24.245],[51.757,24.294],[51.794,24.02],[52.577,24.177],[53.404,24.151],[54.008,24.122],[54.693,24.798],[55.439,25.439],[56.071,26.055],[56.261,25.715],[56.397,24.925],[55.886,24.921],[55.804,24.27],[55.981,24.131],[55.529,23.934],[55.526,23.525],[55.234,23.111],[55.208,22.708],[55.007,22.497],[52.001,23.001],[51.618,24.014],[51.58,24.245]]]}},{"type":"Feature","properties":{"fill":"#fccc84","name":"Qatar"},"geometry":{"type":"Polygon","coordinates":[[[50.81,24.755],[50.744,25.482],[51.013,26.007],[51.286,26.115],[51.589,25.801],[51.607,25.216],[51.39,24.627],[51.112,24.556],[50.81,24.755]]]}},{"type":"Feature","properties":{"fill":"#fccc84","name":"Kuwait"},"geometry":{"type":"Polygon","coordinates":[[[47.975,29.976],[48.183,29.534],[48.094,29.306],[48.416,28.552],[47.709,28.526],[47.46,29.003],[46.569,29.099],[47.303,30.059],[47.975,29.976]]]}},{"type":"Feature","properties":{"fill":"#f0d8a8","name":"Iraq"},"geometry":{"type":"Polygon","coordinates":[[[39.195,32.161],[38.792,33.379],[41.006,34.419],[41.384,35.628],[41.29,36.359],[41.837,36.606],[42.35,37.23],[42.779,37.385],[43.942,37.256],[44.293,37.002],[44.773,37.17],[45.421,35.978],[46.076,35.677],[46.152,35.093],[45.648,34.748],[45.417,33.968],[46.109,33.017],[47.335,32.469],[47.849,31.709],[47.685,30.985],[48.005,30.985],[48.015,30.452],[48.568,29.927],[47.975,29.976],[47.303,30.059],[46.569,29.099],[44.709,29.179],[41.89,31.19],[40.4,31.89],[39.195,32.161]]]}},{"type":"Feature","properties":{"fill":"#b4ccb4","name":"Oman"},"geometry":{"type":"MultiPolygon","coordinates":[[[[55.208,22.708],[55.234,23.111],[55.526,23.525],[55.529,23.934],[55.981,24.131],[55.804,24.27],[55.886,24.921],[56.397,24.925],[56.845,24.242],[57.403,23.879],[58.137,23.748],[58.729,23.566],[59.181,22.992],[59.45,22.66],[59.808,22.534],[59.806,22.311],[59.442,21.715],[59.282,21.434],[58.861,21.114],[58.488,20.429],[58.034,20.481],[57.826,20.243],[57.666,19.736],[57.789,19.068],[57.694,18.945],[57.234,18.948],[56.61,18.574],[56.512,18.087],[56.284,17.876],[55.661,17.884],[55.27,17.632],[55.275,17.228],[54.791,16.951],[54.239,17.045],[53.571,16.708],[53.109,16.651],[52.782,17.35],[52,19],[55,20],[55.667,22],[55.208,22.708]]],[[[56.261,25.715],[56.071,26.055],[56.362,26.396],[56.486,26.309],[56.391,25.896],[56.261,25.715]]]]}},{"type":"Feature","properties":{"fill":"#b4ccb4","name":"Iran"},"geometry":{"type":"Polygon","coordinates":[[[48.568,29.927],[48.015,30.452],[48.005,30.985],[47.685,30.985],[47.849,31.709],[47.335,32.469],[46.109,33.017],[45.417,33.968],[45.648,34.748],[46.152,35.093],[46.076,35.677],[45.421,35.978],[44.773,37.17],[44.773,37.17],[44.226,37.972],[44.421,38.281],[44.109,39.428],[44.794,39.713],[44.953,39.336],[45.458,38.874],[46.144,38.741],[46.506,38.771],[47.685,39.508],[48.06,39.582],[48.356,39.289],[48.011,38.794],[48.634,38.27],[48.883,38.32],[49.2,37.583],[50.148,37.375],[50.842,36.873],[52.264,36.7],[53.826,36.965],[53.922,37.199],[54.8,37.392],[55.512,37.964],[56.18,37.935],[56.619,38.121],[57.33,38.029],[58.436,37.522],[59.235,37.413],[60.378,36.527],[61.123,36.492],[61.211,35.65],[60.803,34.404],[60.528,33.676],[60.964,33.529],[60.536,32.981],[60.864,32.183],[60.942,31.548],[61.699,31.38],[61.781,30.736],[60.874,29.829],[61.369,29.303],[61.772,28.699],[62.728,28.26],[62.755,27.379],[63.234,27.217],[63.317,26.757],[61.874,26.24],[61.497,25.078],[59.616,25.38],[58.526,25.61],[57.397,25.74],[56.971,26.966],[56.492,27.143],[55.724,26.965],[54.715,26.481],[53.493,26.812],[52.484,27.581],[51.521,27.866],[50.853,28.815],[50.115,30.148],[49.577,29.986],[48.941,30.317],[48.568,29.927]]]}},{"type":"Feature","properties":{"fill":"#84c0b4","name":"Syria"},"geometry":{"type":"Polygon","coordinates":[[[35.72,32.709],[35.701,32.716],[35.836,32.868],[35.821,33.277],[36.066,33.825],[36.612,34.202],[36.448,34.594],[35.998,34.645],[35.905,35.41],[36.15,35.822],[36.418,36.041],[36.685,36.26],[36.739,36.818],[37.067,36.623],[38.168,36.901],[38.7,36.713],[39.523,36.716],[40.673,37.091],[41.212,37.074],[42.35,37.23],[41.837,36.606],[41.29,36.359],[41.384,35.628],[41.006,34.419],[38.792,33.379],[36.834,32.313],[35.72,32.709]]]}},{"type":"Feature","properties":{"fill":"#a8cc84","name":"Turkey"},"geometry":{"type":"MultiPolygon","coordinates":[[[[44.773,37.17],[44.293,37.002],[43.942,37.256],[42.779,37.385],[42.35,37.23],[41.212,37.074],[40.673,37.091],[39.523,36.716],[38.7,36.713],[38.168,36.901],[37.067,36.623],[36.739,36.818],[36.685,36.26],[36.418,36.041],[36.15,35.822],[35.782,36.275],[36.161,36.651],[35.551,36.565],[34.715,36.796],[34.027,36.22],[32.509,36.108],[31.7,36.644],[30.622,36.678],[30.391,36.263],[29.7,36.144],[28.733,36.677],[27.641,36.659],[27.049,37.653],[26.318,38.208],[26.805,38.986],[26.171,39.464],[27.28,40.42],[28.82,40.46],[29.24,41.22],[31.146,41.088],[32.348,41.736],[33.513,42.019],[35.168,42.04],[36.913,41.335],[38.348,40.949],[39.513,41.103],[40.373,41.014],[41.554,41.536],[42.62,41.583],[43.583,41.092],[43.753,40.74],[43.656,40.254],[44.4,40.005],[44.794,39.713],[44.109,39.428],[44.421,38.281],[44.226,37.972],[44.773,37.17],[44.773,37.17]]],[[[26.117,41.827],[27.136,42.141],[27.997,42.007],[28.116,41.623],[28.988,41.3],[28.806,41.055],[27.619,41],[27.192,40.691],[26.358,40.152],[26.043,40.618],[26.057,40.824],[26.295,40.936],[26.604,41.562],[26.117,41.827]]]]}},{"type":"Feature","properties":{"fill":"#fccc84","name":"Yemen"},"geometry":{"type":"Polygon","coordinates":[[[52,19],[52.782,17.35],[53.109,16.651],[52.385,16.382],[52.192,15.938],[52.168,15.597],[51.173,15.175],[49.575,14.709],[48.679,14.003],[48.239,13.948],[47.939,14.007],[47.354,13.592],[46.717,13.4],[45.878,13.348],[45.625,13.291],[45.406,13.027],[45.144,12.954],[44.99,12.7],[44.495,12.722],[44.175,12.586],[43.483,12.637],[43.223,13.221],[43.251,13.768],[43.088,14.063],[42.892,14.802],[42.605,15.213],[42.805,15.262],[42.702,15.719],[42.824,15.912],[42.779,16.348],[43.218,16.667],[43.116,17.088],[43.381,17.58],[43.792,17.32],[44.063,17.41],[45.217,17.433],[45.4,17.333],[46.367,17.233],[46.75,17.283],[47,16.95],[47.467,17.117],[48.183,18.167],[49.117,18.617],[52,19]]]}},{"type":"Feature","properties":{"fill":"#a8cc84","name":"Saudi Arabia"},"geometry":{"type":"Polygon","coordinates":[[[34.956,29.357],[36.069,29.197],[36.501,29.505],[36.741,29.865],[37.504,30.004],[37.668,30.339],[37.999,30.509],[37.002,31.508],[39.005,32.01],[39.195,32.161],[40.4,31.89],[41.89,31.19],[44.709,29.179],[46.569,29.099],[47.46,29.003],[47.709,28.526],[48.416,28.552],[48.808,27.69],[49.3,27.461],[49.471,27.11],[50.152,26.69],[50.213,26.277],[50.113,25.944],[50.24,25.608],[50.527,25.328],[50.661,25],[50.81,24.755],[51.112,24.556],[51.39,24.627],[51.58,24.245],[51.618,24.014],[52.001,23.001],[55.007,22.497],[55.208,22.708],[55.667,22],[55,20],[52,19],[49.117,18.617],[48.183,18.167],[47.467,17.117],[47,16.95],[46.75,17.283],[46.367,17.233],[45.4,17.333],[45.217,17.433],[44.063,17.41],[43.792,17.32],[43.381,17.58],[43.116,17.088],[43.218,16.667],[42.779,16.348],[42.65,16.775],[42.348,17.076],[42.271,17.475],[41.754,17.833],[41.221,18.672],[40.939,19.486],[40.248,20.175],[39.802,20.339],[39.139,21.292],[39.024,21.987],[39.066,22.58],[38.493,23.688],[38.024,24.079],[37.484,24.285],[37.155,24.858],[37.209,25.085],[36.932,25.603],[36.64,25.826],[36.249,26.57],[35.64,27.377],[35.13,28.063],[34.632,28.059],[34.788,28.607],[34.832,28.957],[34.956,29.357]]]}}]}