{"type":"FeatureCollection","features":[{"type":"Feature","properties":{"fill":"#f0d8a8","name":"Fiji"},"geometry":{"type":"MultiPolygon","coordinates":[[[[180,-16.067],[180,-16.555],[179.364,-16.801],[178.725,-17.012],[178.597,-16.639],[179.097,-16.434],[179.414,-16.379],[180,-16.067]]],[[[178.126,-17.505],[178.374,-17.34],[178.718,-17.628],[178.553,-18.151],[177.933,-18.288],[177.381,-18.164],[177.285,-17.725],[177.671,-17.381],[178.126,-17.505]]],[[[-179.793,-16.021],[-179.917,-16.502],[-180,-16.555],[-180,-16.067],[-179.793,-16.021]]]]}},{"type":"Feature","properties":{"fill":"#fccc84","name":"Papua New Guinea"},"geometry":{"type":"MultiPolygon","coordinates":[[[[141,-2.6],[142.735,-3.289],[144.584,-3.861],[145.273,-4.374],[145.83,-4.876],[145.982,-5.466],[147.648,-6.084],[147.891,-6.614],[146.971,-6.722],[147.192,-7.388],[148.085,-8.044],[148.734,-9.105],[149.307,-9.071],[149.267,-9.514],[150.039,-9.684],[149.739,-9.873],[150.802,-10.294],[150.691,-10.583],[150.028,-10.652],[149.782,-10.393],[148.923,-10.281],[147.913,-10.13],[147.135,-9.492],[146.568,-8.943],[146.048,-8.067],[144.744,-7.63],[143.897,-7.915],[143.286,-8.245],[143.414,-8.983],[142.628,-9.327],[142.068,-9.16],[141.034,-9.118],[141.017,-5.859],[141,-2.6]]],[[[152.64,-3.66],[153.02,-3.98],[153.14,-4.5],[152.827,-4.766],[152.639,-4.176],[152.406,-3.79],[151.953,-3.462],[151.384,-3.035],[150.662,-2.741],[150.94,-2.5],[151.48,-2.78],[151.82,-3],[152.24,-3.24],[152.64,-3.66]]],[[[151.301,-5.841],[150.754,-6.084],[150.241,-6.318],[149.71,-6.317],[148.89,-6.026],[148.319,-5.747],[148.402,-5.438],[149.298,-5.584],[149.846,-5.506],[149.996,-5.026],[150.14,-5.001],[150.237,-5.532],[150.807,-5.456],[151.09,-5.114],[151.648,-4.757],[151.538,-4.168],[152.137,-4.149],[152.339,-4.313],[152.319,-4.868],[151.983,-5.478],[151.459,-5.56],[151.301,-5.841]]],[[[154.76,-5.34],[155.063,-5.567],[155.548,-6.201],[156.02,-6.54],[155.88,-6.82],[155.6,-6.92],[155.167,-6.536],[154.729,-5.901],[154.514,-5.139],[154.653,-5.042],[154.76,-5.34]]]]}},{"type":"Feature","properties":{"fill":"#fccc84","name":"Vanuatu"},"geometry":{"type":"MultiPolygon","coordinates":[[[[167.217,-15.892],[167.845,-16.466],[167.515,-16.598],[167.18,-16.16],[167.217,-15.892]]],[[[166.793,-15.669],[166.65,-15.393],[166.629,-14.626],[167.108,-14.934],[167.27,-15.74],[167.001,-15.615],[166.793,-15.669]]]]}},{"type":"Feature","properties":{"fill":"#f0b478","name":"New Zealand"},"geometry":{"type":"MultiPolygon","coordinates":[[[[176.886,-40.066],[176.508,-40.605],[176.012,-41.29],[175.24,-41.688],[175.068,-41.426],[174.651,-41.282],[175.228,-40.459],[174.9,-39.909],[173.824,-39.509],[173.852,-39.147],[174.575,-38.798],[174.743,-38.028],[174.697,-37.381],[174.292,-36.711],[174.319,-36.535],[173.841,-36.122],[173.054,-35.237],[172.636,-34.529],[173.007,-34.451],[173.551,-35.006],[174.329,-35.265],[174.612,-36.156],[175.337,-37.209],[175.358,-36.526],[175.809,-36.799],[175.958,-37.555],[176.763,-37.881],[177.439,-37.961],[178.01,-37.58],[178.517,-37.695],[178.275,-38.583],[177.97,-39.166],[177.207,-39.146],[176.94,-39.45],[177.033,-39.88],[176.886,-40.066]]],[[[169.668,-43.555],[170.525,-43.032],[171.125,-42.513],[171.57,-41.767],[171.949,-41.514],[172.097,-40.956],[172.799,-40.494],[173.02,-40.919],[173.247,-41.332],[173.958,-40.927],[174.248,-41.349],[174.249,-41.77],[173.876,-42.233],[173.223,-42.97],[172.711,-43.372],[173.08,-43.853],[172.309,-43.866],[171.453,-44.243],[171.185,-44.897],[170.617,-45.909],[169.831,-46.356],[169.332,-46.641],[168.411,-46.62],[167.764,-46.29],[166.677,-46.22],[166.509,-45.853],[167.046,-45.111],[168.304,-44.124],[168.949,-43.936],[169.668,-43.555]]]]}},{"type":"Feature","properties":{"fill":"#fccc84","name":"Australia"},"geometry":{"type":"MultiPolygon","coordinates":[[[[147.689,-40.808],[148.289,-40.875],[148.36,-42.062],[148.017,-42.407],[147.914,-43.212],[147.565,-42.938],[146.87,-43.635],[146.663,-43.581],[146.048,-43.55],[145.432,-42.694],[145.295,-42.034],[144.718,-41.163],[144.744,-40.704],[145.398,-40.793],[146.364,-41.138],[146.909,-41.001],[147.689,-40.808]]],[[[126.149,-32.216],[125.089,-32.729],[124.222,-32.959],[124.029,-33.484],[123.66,-33.89],[122.811,-33.914],[122.183,-34.003],[121.299,-33.821],[120.58,-33.93],[119.894,-33.976],[119.299,-34.509],[119.007,-34.464],[118.506,-34.747],[118.025,-35.065],[117.296,-35.025],[116.625,-35.025],[115.564,-34.386],[115.027,-34.197],[115.049,-33.623],[115.545,-33.487],[115.715,-33.26],[115.679,-32.9],[115.802,-32.205],[115.69,-31.612],[115.161,-30.602],[114.997,-30.031],[115.04,-29.461],[114.642,-28.81],[114.616,-28.516],[114.174,-28.118],[114.049,-27.335],[113.477,-26.543],[113.339,-26.117],[113.778,-26.549],[113.441,-25.621],[113.937,-25.911],[114.233,-26.298],[114.216,-25.786],[113.721,-24.999],[113.625,-24.684],[113.394,-24.385],[113.502,-23.806],[113.707,-23.56],[113.843,-23.06],[113.737,-22.475],[114.15,-21.756],[114.225,-22.517],[114.648,-21.83],[115.46,-21.495],[115.947,-21.069],[116.712,-20.702],[117.166,-20.624],[117.442,-20.747],[118.23,-20.374],[118.836,-20.263],[118.988,-20.044],[119.252,-19.953],[119.805,-19.977],[120.856,-19.684],[121.4,-19.24],[121.655,-18.705],[122.242,-18.198],[122.287,-17.799],[122.313,-17.255],[123.013,-16.405],[123.434,-17.269],[123.859,-17.069],[123.503,-16.597],[123.817,-16.111],[124.258,-16.328],[124.38,-15.567],[124.926,-15.075],[125.167,-14.68],[125.67,-14.51],[125.686,-14.231],[126.125,-14.347],[126.143,-14.096],[126.583,-13.953],[127.066,-13.818],[127.805,-14.277],[128.36,-14.869],[128.986,-14.876],[129.621,-14.97],[129.41,-14.421],[129.889,-13.619],[130.339,-13.357],[130.184,-13.108],[130.618,-12.536],[131.223,-12.184],[131.735,-12.302],[132.575,-12.114],[132.557,-11.603],[131.825,-11.274],[132.357,-11.129],[133.02,-11.376],[133.551,-11.787],[134.393,-12.042],[134.679,-11.941],[135.298,-12.249],[135.883,-11.962],[136.258,-12.049],[136.492,-11.857],[136.952,-12.352],[136.685,-12.887],[136.305,-13.291],[135.962,-13.325],[136.078,-13.724],[135.784,-14.224],[135.429,-14.715],[135.5,-14.998],[136.295,-15.55],[137.065,-15.871],[137.58,-16.215],[138.303,-16.808],[138.585,-16.807],[139.109,-17.063],[139.261,-17.372],[140.215,-17.711],[140.875,-17.369],[141.071,-16.832],[141.274,-16.389],[141.398,-15.841],[141.702,-15.045],[141.563,-14.561],[141.636,-14.27],[141.52,-13.698],[141.651,-12.945],[141.843,-12.742],[141.687,-12.408],[141.929,-11.877],[142.118,-11.328],[142.144,-11.043],[142.515,-10.668],[142.797,-11.157],[142.867,-11.785],[143.116,-11.906],[143.159,-12.326],[143.522,-12.834],[143.597,-13.4],[143.562,-13.764],[143.922,-14.548],[144.564,-14.171],[144.895,-14.594],[145.375,-14.985],[145.272,-15.428],[145.485,-16.286],[145.637,-16.785],[145.889,-16.907],[146.16,-17.762],[146.064,-18.28],[146.387,-18.958],[147.471,-19.481],[148.178,-19.956],[148.848,-20.391],[148.717,-20.633],[149.289,-21.261],[149.678,-22.343],[150.077,-22.123],[150.483,-22.556],[150.727,-22.402],[150.9,-23.462],[151.609,-24.076],[152.074,-24.458],[152.855,-25.268],[153.136,-26.071],[153.162,-26.641],[153.093,-27.26],[153.569,-28.11],[153.512,-28.995],[153.339,-29.458],[153.069,-30.35],[153.09,-30.924],[152.892,-31.64],[152.45,-32.55],[151.709,-33.041],[151.344,-33.816],[151.011,-34.31],[150.714,-35.173],[150.328,-35.672],[150.075,-36.42],[149.946,-37.109],[149.997,-37.425],[149.424,-37.773],[148.305,-37.809],[147.382,-38.219],[146.922,-38.607],[146.318,-39.036],[145.49,-38.594],[144.877,-38.417],[145.032,-37.896],[144.486,-38.085],[143.61,-38.809],[142.745,-38.538],[142.178,-38.38],[141.607,-38.309],[140.639,-38.019],[139.992,-37.403],[139.807,-36.644],[139.574,-36.138],[139.083,-35.733],[138.121,-35.612],[138.449,-35.127],[138.208,-34.385],[137.719,-35.077],[136.829,-35.261],[137.352,-34.707],[137.504,-34.13],[137.89,-33.64],[137.81,-32.9],[136.997,-33.753],[136.372,-34.095],[135.989,-34.89],[135.208,-34.479],[135.239,-33.948],[134.613,-33.223],[134.086,-32.848],[134.274,-32.617],[132.991,-32.011],[132.288,-31.983],[131.326,-31.496],[129.536,-31.59],[128.241,-31.948],[127.103,-32.282],[126.149,-32.216]]]]}}]}